IRIDIUM 144             
1 43249U 18030A   25024.40878868  .00000704  00000+0  24419-3 0  9999
2 43249  86.4013 143.1115 0001980  97.4321 262.7100 14.34217812357237
IRIDIUM 149             
1 43250U 18030B   25024.41513262  .00000061  00000+0  14714-4 0  9990
2 43250  86.4013 143.0817 0002210  94.0930 266.0518 14.34217649357231
IRIDIUM 157             
1 43251U 18030C   25023.87601152 -.00000040  00000+0 -21242-4 0  9999
2 43251  86.4015 143.3488 0001830  90.6870 269.4536 14.34217242357138
IRIDIUM 140             
1 43252U 18030D   25023.82526560  .00000770  00000+0  26797-3 0  9991
2 43252  86.4012 143.3838 0002091 100.0771 260.0661 14.34221762357184
IRIDIUM 145             
1 43253U 18030E   25023.81258678 -.00000095  00000+0 -40847-4 0  9998
2 43253  86.4013 143.3623 0002345  98.3240 261.8222 14.34217126357114
IRIDIUM 146             
1 43254U 18030F   25024.35170216  .00000783  00000+0  27238-3 0  9990
2 43254  86.4011 143.1512 0002392 100.4302 259.7163 14.34222168357206
IRIDIUM 148             
1 43255U 18030G   25024.45953102 -.00000042  00000+0 -22199-4 0  9997
2 43255  86.4017 143.1418 0002198  94.7221 265.4225 14.34217075357267
IRIDIUM 142             
1 43256U 18030H   25023.93943944  .00000984  00000+0  34433-3 0  9999
2 43256  86.4011 143.2657 0002698  92.2931 267.8574 14.34217730357142
